PHASE 3B (AO-10)        
1 14129U 83058B   21021.82556569  .00000147  00000-0  00000-0 0  9995
2 14129  25.7887 179.0897 6065622 303.3308  12.4702  2.05866858254908
UOSAT 2 (UO-11)         
1 14781U 84021B   21028.95388682  .00000103  00000-0  18720-4 0  9994
2 14781  97.5900  35.6885 0008581 170.3117 189.8265 14.83241723986254
LUSAT (LO-19)           
1 20442U 90005G   21028.90826218 -.00000009  00000-0  13214-4 0  9990
2 20442  98.7233 343.2494 0011172 206.9880 153.0724 14.32974680620846
EYESAT A (AO-27)        
1 22825U 93061C   21028.86987938 -.00000004  00000-0  16506-4 0  9996
2 22825  98.9240  43.0059 0009467  82.3175 277.9081 14.30104703426038
ITAMSAT (IO-26)         
1 22826U 93061D   21028.73336694  .00000007  00000-0  20511-4 0  9993
2 22826  98.9182  42.7883 0009939  71.4976 288.7285 14.30442354426254
RADIO ROSTO (RS-15)     
1 23439U 94085A   21028.92740627 -.00000037  00000-0  15882-3 0  9995
2 23439  64.8151 241.6164 0156602   0.3852 359.7165 11.27570196 74602
JAS-2 (FO-29)           
1 24278U 96046B   21029.14026592 -.00000045  00000-0 -11905-4 0  9992
2 24278  98.5831 115.4927 0350855 150.3915 211.7603 13.53102151207650
TECHSAT 1B (GO-32)      
1 25397U 98043D   21029.11303451 -.00000014  00000-0  13379-4 0  9995
2 25397  98.7559 335.1697 0002229 108.9525 251.1895 14.23700125171881
ISS (ZARYA)             
1 25544U 98067A   21027.77992426  .00003336  00000-0  68893-4 0  9991
2 25544  51.6465 317.1909 0002399 302.6503 164.1536 15.48908950266831
PCSAT (NO-44)           
1 26931U 01043C   21028.98511731 -.00000001  00000-0  31492-4 0  9992
2 26931  67.0512 280.3737 0007407 270.9485  89.0768 14.30604223  9290
SAUDISAT 1C (SO-50)     
1 27607U 02058C   21028.76922850  .00000047  00000-0  27074-4 0  9994
2 27607  64.5557  45.4692 0029451  82.4513 277.9933 14.75706479973942
CUTE-1 (CO-55)          
1 27844U 03031E   21028.76433705  .00000058  00000-0  45474-4 0  9991
2 27844  98.6817  39.0846 0010791 120.4909 239.7336 14.22284762912125
CUBESAT XI-IV (CO-57)   
1 27848U 03031J   21028.50501413  .00000049  00000-0  41818-4 0  9997
2 27848  98.6878  39.3975 0010548 133.0486 227.1576 14.21865149911929
MOZHAYETS 4 (RS-22)     
1 27939U 03042A   21029.09967299  .00000185  00000-0  41777-4 0  9998
2 27939  98.1176 167.3619 0012830   6.7721 353.3642 14.66937985927095
CUBESAT XI-V            
1 28895U 05043F   21028.85106061  .00000163  00000-0  40084-4 0  9994
2 28895  98.0367 165.3290 0015527 291.5587  68.3961 14.63858554813813
CUTE-1.7+APD II (CO-65) 
1 32785U 08021C   21029.19657921  .00000282  00000-0  35784-4 0  9993
2 32785  97.5961  13.5781 0014494 103.3150 256.9685 14.88620428691521
DELFI-C3 (DO-64)        
1 32789U 08021G   21028.67157755  .00001949  00000-0  12896-3 0  9998
2 32789  97.3930  69.3437 0010408 261.2207  98.7843 15.08434552695755
SEEDS II (CO-66)        
1 32791U 08021J   21028.53529882  .00000524  00000-0  57904-4 0  9998
2 32791  97.5585  18.9768 0014707  74.2998 285.9842 14.91260027691927
YUBILEINY (RS-30)       
1 32953U 08025A   21029.15281196  .00000028  00000-0  12906-3 0  9995
2 32953  82.5053 137.5722 0018424 280.3013  79.5982 12.43099622575678
KKS-1 (KISEKI)          
1 33499U 09002H   21028.92274307  .00000137  00000-0  28075-4 0  9993
2 33499  98.2884 255.6080 0010131 121.9216 238.2979 14.75611466645830
SWISSCUBE               
1 35932U 09051B   21029.10553658  .00000153  00000-0  45504-4 0  9995
2 35932  98.6068 224.6753 0008107 148.6897 211.4784 14.56481620602719
BEESAT-1                
1 35933U 09051C   21028.80219464  .00000139  00000-0  42341-4 0  9996
2 35933  98.6046 226.2165 0006088 159.5069 200.6373 14.56546259602702
ITUPSAT1                
1 35935U 09051E   21028.79218679  .00000124  00000-0  39608-4 0  9999
2 35935  98.6150 226.3707 0008390 162.4813 197.6674 14.55684033602454
XIWANG-1 (HOPE-1)       
1 36122U 09072B   21028.68203012 -.00000018  00000-0  62718-4 0  9995
2 36122 100.1164  15.2393 0007965  64.7083 295.4861 13.16358916534502
JUGNU                   
1 37839U 11058B   21028.33940032  .00000320  00000-0  29048-4 0  9994
2 37839  19.9629 358.9474 0018785 348.2207 162.9878 14.12701702480629
SRMSAT                  
1 37841U 11058D   21029.14207699  .00000285  00000-0  11204-4 0  9997
2 37841  19.9732  63.0714 0011739 202.4664 193.9708 14.10683643480164
M-CUBED & EXP-1 PRIME   
1 37855U 11061F   21028.83605196  .00001896  00000-0  98848-4 0  9993
2 37855 101.7256 239.8329 0168492 125.7716 235.9295 15.07142297505145
STRAND-1                
1 39090U 13009E   21028.83068718  .00000055  00000-0  34423-4 0  9998
2 39090  98.4365 234.2280 0008742 341.0496  19.0363 14.35166109415016
SOMP                    
1 39134U 13015E   21028.77548237  .00002068  00000-0  99181-4 0  9994
2 39134  64.8632 266.4728 0011352 219.0342 140.9968 15.21927153429951
BEESAT-3                
1 39135U 13015F   21028.74969481  .00001492  00000-0  80640-4 0  9990
2 39135  64.8668 293.4974 0015334 205.2130 154.8250 15.18867391429423
BEESAT-2                
1 39136U 13015G   21029.15099616  .00001582  00000-0  85911-4 0  9997
2 39136  64.8741 298.0260 0028618 262.2651  97.5226 15.18249367429765
ZACUBE-1 (TSHEPISOSAT)  
1 39417U 13066B   21028.90805538  .00000279  00000-0  41274-4 0  9991
2 39417  97.5805  20.5728 0057232 258.4259 101.0526 14.81417694388412
GOMX-1                  
1 39430U 13066Q   21029.09278421  .00000159  00000-0  37854-4 0  9998
2 39430  97.8091 320.2063 0150230 193.3517 166.3691 14.59526421382713
CUBEBUG-2 (LO-74)       
1 39440U 13066AA  21028.88723648  .00000363  00000-0  57188-4 0  9990
2 39440  97.6585   5.2726 0079253 329.3651  30.2943 14.76151043385839
FUNCUBE-1 (AO-73)       
1 39444U 13066AE  21028.90910164  .00000352  00000-0  49284-4 0  9994
2 39444  97.5725  22.9040 0056363 249.2812 110.2355 14.82303541386767
UWE-3                   
1 39446U 13066AG  21028.48991869  .00000382  00000-0  57064-4 0  9998
2 39446  97.6212  11.9604 0068467 296.3575  63.0617 14.78686025385820
SPROUT                  
1 39770U 14029E   21029.17152921  .00000920  00000-0  10593-3 0  9996
2 39770  97.9071 140.7067 0007991 311.0817  48.9710 14.88148977362628
UNISAT-6                
1 40012U 14033C   21028.82145788  .00000249  00000-0  44181-4 0  9991
2 40012  97.6864 238.4733 0058032 353.2689   6.7734 14.74233271355625
DUCHIFAT-1              
1 40021U 14033M   21028.76816569  .00000811  00000-0  87573-4 0  9993
2 40021  97.9614 327.6031 0011401 265.2363  94.7553 14.91161037359464
QB50P1                  
1 40025U 14033R   21029.08133978  .00000444  00000-0  52805-4 0  9991
2 40025  97.9270 319.4767 0011044 278.8061  81.1905 14.89315964359186
NUDT-PHONESAT           
1 40900U 15049B   21029.15684157  .00004228  00000-0  17014-3 0  9995
2 40900  97.4256  44.2474 0010519 269.5542 155.3569 15.25395221297582
ZDPS 2A                 
1 40901U 15049C   21029.15089350  .00002092  00000-0  10320-3 0  9990
2 40901  97.4632  37.9656 0011891 313.2683 111.1566 15.18978313296823
ZDPS 2B                 
1 40902U 15049D   21029.21066053  .00002298  00000-0  11298-3 0  9996
2 40902  97.4646  35.3108 0011915 310.1378 180.5195 15.18996520296803
XW-2A                   
1 40903U 15049E   21029.16515615  .00004229  00000-0  93506-4 0  9993
2 40903  97.2585  84.0049 0013459 155.4433 289.4046 15.44297473301290
KAITUO 1A               
1 40904U 15049F   21029.22705082  .00000628  00000-0  36171-4 0  9994
2 40904  97.4828  32.9518 0013471 326.6590 162.0035 15.15980444296445
2015-049G               
1 40905U 15049G   21029.14260801  .00000548  00000-0  33010-4 0  9991
2 40905  97.4945  29.9858 0014510 324.7910  99.4007 15.14806983296243
XW-2C                   
1 40906U 15049H   21029.14260784  .00001071  00000-0  58397-4 0  9999
2 40906  97.4829  33.2873 0013397 316.1236 108.2366 15.16452704296458
XW-2D                   
1 40907U 15049J   21029.16356204  .00001207  00000-0  64913-4 0  9997
2 40907  97.4815  33.0598 0012757 312.5621 105.8854 15.16735669296485
LILACSAT-2              
1 40908U 15049K   21029.24431645  .00000901  00000-0  52799-4 0  9999
2 40908  97.4999  31.1825 0014798 326.3593  44.6226 15.14271315296168
XW-2F                   
1 40910U 15049M   21028.96052745  .00001792  00000-0  89895-4 0  9996
2 40910  97.4716  35.7599 0012878 299.1671  91.1077 15.18559910296555
XW-2B                   
1 40911U 15049N   21029.02834192  .00001130  00000-0  61119-4 0  9994
2 40911  97.4822  33.6219 0012678 314.2841 111.8891 15.16655419296357
KAITUO 1B               
1 40912U 15049P   21028.98999061  .00002167  00000-0  10063-3 0  9998
2 40912  97.4467  40.1120 0012910 271.2701 118.2195 15.21035462296997
TIANWANG 1C (TW-1C)     
1 40926U 15051B   21029.13483043  .00224334  20833-4  65184-3 0  9998
2 40926  97.0441  90.5903 0001661 258.4971 156.7021 15.92916857302521
TIANWANG 1A (TW-1A)     
1 40928U 15051D   21029.02790909  .00005960  00000-0  13063-3 0  9991
2 40928  97.0908  57.3178 0011793  84.2969 330.3066 15.44382609300161
LAPAN-A2                
1 40931U 15052B   21028.87000561  .00000726  00000-0  11916-4 0  9997
2 40931   5.9997 167.8256 0013566 231.2075 128.6864 14.76660645288631
E-ST@R-II               
1 41459U 16025D   21029.04665767  .00003899  00000-0  19418-3 0  9997
2 41459  98.1214 157.2043 0162790 171.8383 188.5556 15.07351740261413
AAUSAT 4                
1 41460U 16025E   21029.07915486  .00007373  00000-0  34905-3 0  9997
2 41460  98.1212 160.4509 0150572 157.8327 202.9502 15.10112136261671
NUSAT-1 (FRESCO)        
1 41557U 16033B   21029.20875125  .00002493  00000-0  91516-4 0  9993
2 41557  97.3973 124.0042 0013540  15.9408  67.5623 15.28821517260259
BEESAT-4                
1 41619U 16040W   21028.84588181  .00002135  00000-0  88623-4 0  9990
2 41619  97.2907  88.7556 0012553 103.5804 256.6833 15.24846635243739
